STARLINK-30576          
1 58065U 23158Q   26068.25491943  .00001431  00000+0  61525-4 0  9993
2 58065  43.0047  29.4883 0001020 269.0144  91.0591 15.27569358133505
LUR-1                   
1 60506U 24149AQ  26068.79566301  .00009121  00000+0  32985-3 0  9998
2 60506  97.3790 148.4255 0002777 309.1571  50.9421 15.28658648 86785
